[Satellite]
VERSION=1.1
NAME=ELECTRON KICK STAGE R/B
NICKNAME=ELECTRON KICK STAGE R/B
TLE1=1 54024U 22127B   22296.91587717  .00003240  00000+0  44214-3 0  9991
TLE2=2 54024  98.2936 296.6147 0141074 330.9234  28.4184 14.72712057  2375
STATUS=0
